[{"OBJECT_NAME":"STARLINK-5293","OBJECT_ID":"2023-010AC","EPOCH":"2026-03-09T16:42:54.798912","MEAN_MOTION":14.98333796,"ECCENTRICITY":0.00030534,"INCLINATION":70.0001,"RA_OF_ASC_NODE":44.5723,"ARG_OF_PERICENTER":264.6455,"MEAN_ANOMALY":95.4356,"EPHEMERIS_TYPE":0,"CLASSIFICATION_TYPE":"U","NORAD_CAT_ID":55295,"ELEMENT_SET_NO":999,"REV_AT_EPOCH":17278,"BSTAR":8.9593863e-5,"MEAN_MOTION_DOT":9.76e-6,"MEAN_MOTION_DDOT":0},{"OBJECT_NAME":"COSMOS 886 DEB","OBJECT_ID":"1976-126AJ","EPOCH":"2026-03-09T21:59:13.207776","MEAN_MOTION":12.96467472,"ECCENTRICITY":0.09143982,"INCLINATION":65.7782,"RA_OF_ASC_NODE":273.3023,"ARG_OF_PERICENTER":134.0657,"MEAN_ANOMALY":233.9465,"EPHEMERIS_TYPE":0,"CLASSIFICATION_TYPE":"U","NORAD_CAT_ID":9822,"ELEMENT_SET_NO":999,"REV_AT_EPOCH":29457,"BSTAR":0.00073705961,"MEAN_MOTION_DOT":1.505e-5,"MEAN_MOTION_DDOT":0}]
